NORAD_CAT_ID,OBJECT_NAME,OBJECT_TYPE,EPOCH,MEAN_MOTION,ECCENTRICITY,INCLINATION,RA_OF_ASC_NODE,ARG_OF_PERICENTER,MEAN_ANOMALY,BSTAR,MEAN_MOTION_DOT,MEAN_MOTION_DDOT,TLE_LINE0,TLE_LINE1,TLE_LINE2,SEMIMAJOR_AXIS,PERIOD,APOGEE,PERIGEE,DECAYED
52850.0,STARLINK-4187,PAYLOAD,2022-07-04 06:00:00,15.73252448,0.0001335,53.2159,322.0968,45.1226,304.7224,-0.00020033,-0.00028702,0.0,0 STARLINK-4187,1 52850U 22062W   22185.25001157 -.00028702  00000-0 -20033-3 0  9993,2 52850  53.2159 322.0968 0001335  45.1226 304.7224 15.73252448  3139,6727.746,91.53,350.509,348.712,0.0
52850.0,STARLINK-4187,PAYLOAD,2022-07-04 14:00:01,15.73243373,0.0001531999999999,53.2159,320.4487,42.5187,36.3019,-0.000816,-0.00113818,0.0,0 STARLINK-4187,1 52850U 22062W   22185.58334491 -.00113818  00000-0 -81600-3 0  9999,2 52850  53.2159 320.4487 0001532  42.5187  36.3019 15.73243373  1307,6727.772,91.531,350.667,348.606,0.0
52850.0,STARLINK-4187,PAYLOAD,2022-07-04 22:00:00,15.73187323,0.0001553,53.2152,318.7996,34.4768,133.2958,0.00028115,0.00039,0.0,0 STARLINK-4187,1 52850U 22062W   22185.91667824  .00039000  00000-0  28115-3 0  9995,2 52850  53.2152 318.7996 0001553  34.4768 133.2958 15.73187323  1304,6727.931,91.534,350.841,348.751,0.0
52850.0,STARLINK-4187,PAYLOAD,2022-07-05 14:00:01,15.7328099,0.0001554,53.2154,315.5002,38.8131,306.8254,-0.00068985,-0.00096668,0.0,0 STARLINK-4187,1 52850U 22062W   22186.58334491 -.00096668  00000-0 -68985-3 0  9994,2 52850  53.2154 315.5002 0001554  38.8131 306.8254 15.73280990  3349,6727.6640000000025,91.528,350.575,348.4840000000001,0.0
52850.0,STARLINK-4187,PAYLOAD,2022-07-05 22:00:00,15.73243037,0.000173,53.2154,313.8506,36.1555,38.4605,-0.00032791,-0.00046474,0.0,0 STARLINK-4187,1 52850U 22062W   22186.91667824 -.00046474  00000-0 -32791-3 0  9996,2 52850  53.2154 313.8506 0001730  36.1555  38.4605 15.73243037  3390,6727.772,91.531,350.801,348.474,0.0
52850.0,STARLINK-4187,PAYLOAD,2022-07-06 06:00:00,15.73151726,0.0001433,53.2155,312.1994,37.0304,126.5115,0.0003698,0.0005149,0.0,0 STARLINK-4187,1 52850U 22062W   22187.25001157  .00051490  00000-0  36980-3 0  9991,2 52850  53.2155 312.1994 0001433  37.0304 126.5115 15.73151726  3440,6728.033,91.536,350.862,348.934,0.0
52850.0,STARLINK-4187,PAYLOAD,2022-07-06 14:00:01,15.73188732,0.0001699,53.2156,310.5514,34.4184,218.0167,8.2813e-05,0.00011012,0.0,0 STARLINK-4187,1 52850U 22062W   22187.58334491  .00011012  00000-0  82813-4 0  9990,2 52850  53.2156 310.5514 0001699  34.4184 218.0167 15.73188732  1306,6727.927,91.534,350.935,348.649,0.0
52850.0,STARLINK-4187,PAYLOAD,2022-07-06 22:00:00,15.7325936,0.000176,53.2159,308.9022,31.0222,310.3181,-0.00080425,-0.00112289,0.0,0 STARLINK-4187,1 52850U 22062W   22187.91667824 -.00112289  00000-0 -80425-3 0  9992,2 52850  53.2159 308.9022 0001760  31.0222 310.3181 15.73259360  3556,6727.726,91.53,350.775,348.407,0.0
52850.0,STARLINK-4187,PAYLOAD,2022-07-07 04:10:42,15.73217211,0.0001609,53.2154,307.6267,35.7616,324.3511,0.00023238,0.00032142,0.0,0 STARLINK-4187,1 52850U 22062W   22188.17410017  .00032142  00000-0  23238-3 0  9997,2 52850  53.2154 307.6267 0001609  35.7616 324.3511 15.73217211  3593,6727.846,91.532,350.7940000000001,348.629,0.0
52850.0,STARLINK-4187,PAYLOAD,2022-07-07 14:00:01,15.73264719,0.000168,53.2152,305.6029,29.365,129.8884,-0.00071098,-0.00099509,0.0,0 STARLINK-4187,1 52850U 22062W   22188.58334491 -.00099509  00000-0 -71098-3 0  9992,2 52850  53.2152 305.6029 0001680  29.3650 129.8884 15.73264719  1304,6727.7109999999975,91.529,350.706,348.445,0.0
52850.0,STARLINK-4187,PAYLOAD,2022-07-07 22:00:00,15.73267044,0.0001710999999999,53.2157,303.9533,27.7227,220.4802,-0.0014,-0.00193223,0.0,0 STARLINK-4187,1 52850U 22062W   22188.91667824 -.00193223  00000-0 -14000-2 0  9995,2 52850  53.2157 303.9533 0001711  27.7227 220.4802 15.73267044  3716,6727.704000000002,91.529,350.72,348.418,0.0
52850.0,STARLINK-4187,PAYLOAD,2022-07-08 06:00:02,15.73164469,0.0001689,53.2154,302.3014,34.4269,302.8327,0.00056842,0.00079794,0.0,0 STARLINK-4187,1 52850U 22062W   22189.25002315  .00079794  00000-0  56842-3 0  9996,2 52850  53.2154 302.3014 0001689  34.4269 302.8327 15.73164469  3764,6727.996,91.535,350.99800000000016,348.725,0.0
52850.0,STARLINK-4187,PAYLOAD,2022-07-08 07:37:18,15.73251941,0.0001647,53.2154,301.9676,34.104,326.0086,0.00011465,0.00015535,0.0,0 STARLINK-4187,1 52850U 22062W   22189.31757654  .00015535  00000-0  11465-3 0  9991,2 52850  53.2154 301.9676 0001647  34.1040 326.0086 15.73251941  3774,6727.746999999999,91.53,350.72,348.504,0.0
52850.0,STARLINK-4187,PAYLOAD,2022-07-08 14:00:01,15.73283048,0.0001885,53.2168,300.6543,31.066,35.0342,-0.0011832,-0.00164074,0.0,0 STARLINK-4187,1 52850U 22062W   22189.58334491 -.00164074  00000-0 -11832-2 0  9992,2 52850  53.2168 300.6543 0001885  31.0660  35.0342 15.73283048  3816,6727.658,91.528,350.792,348.255,0.0
52850.0,STARLINK-4187,PAYLOAD,2022-07-08 22:00:01,15.73280303,0.0001931,53.2151,299.0034,24.6657,130.6289,-0.00034412,-0.00048806,0.0,0 STARLINK-4187,1 52850U 22062W   22189.91668981 -.00048806  00000-0 -34412-3 0  9997,2 52850  53.2151 299.0034 0001931  24.6657 130.6289 15.73280303  1305,6727.666,91.529,350.83,348.232,0.0
52850.0,STARLINK-4187,PAYLOAD,2022-07-09 06:00:00,15.73240343,0.0001768,53.2153,297.3523,32.6035,211.607,-0.00097258,-0.00135187,0.0,0 STARLINK-4187,1 52850U 22062W   22190.25001157 -.00135187  00000-0 -97258-3 0  9998,2 52850  53.2153 297.3523 0001768  32.6035 211.6070 15.73240343  3926,6727.78,91.531,350.835,348.456,0.0
52850.0,STARLINK-4187,PAYLOAD,2022-07-09 14:00:01,15.73136848,0.0002053,53.2154,295.705,30.1561,302.9823,-0.0013159,-0.00180916,0.0,0 STARLINK-4187,1 52850U 22062W   22190.58334491 -.00180916  00000-0 -13159-2 0  9991,2 52850  53.2154 295.7050 0002053  30.1561 302.9823 15.73136848  1303,6728.075,91.537,351.32199999999995,348.559,0.0
52850.0,STARLINK-4187,PAYLOAD,2022-07-09 20:00:01,15.73168855,0.0002061,53.2152,294.468,23.6368,286.0608,0.00029837,0.00041406,0.0,0 STARLINK-4187,1 52850U 22062W   22190.83334491  .00041406  00000-0  29837-3 0  9998,2 52850  53.2152 294.4680 0002061  23.6368 286.0608 15.73168855  1303,6727.984,91.535,351.236,348.462,0.0
52850.0,STARLINK-4187,PAYLOAD,2022-07-10 14:00:01,15.731724599999998,0.0002331,53.216,290.7565,31.3882,208.3926,0.00024599,0.00034004,0.0,0 STARLINK-4187,1 52850U 22062W   22191.58334491  .00034004  00000-0  24599-3 0  9997,2 52850  53.2160 290.7565 0002331  31.3882 208.3926 15.73172460  4131,6727.974,91.535,351.407,348.27,0.0
52850.0,STARLINK-4187,PAYLOAD,2022-07-10 22:00:00,15.73241082,0.0002215,53.2156,289.1061,28.046,300.6374,-0.0007188,-0.00100493,0.0,0 STARLINK-4187,1 52850U 22062W   22191.91667824 -.00100493  00000-0 -71880-3 0  9996,2 52850  53.2156 289.1061 0002215  28.0460 300.6374 15.73241082  1301,6727.778,91.531,351.1330000000001,348.153,0.0
52850.0,STARLINK-4187,PAYLOAD,2022-07-11 06:00:00,15.73163873,0.0002039,53.2159,287.4555,29.7477,27.8723,0.00048025,0.00067219,0.0,0 STARLINK-4187,1 52850U 22062W   22192.25001157  .00067219  00000-0  48025-3 0  9996,2 52850  53.2159 287.4555 0002039  29.7477  27.8723 15.73163873  4235,6727.998000000001,91.535,351.235,348.491,0.0
52850.0,STARLINK-4187,PAYLOAD,2022-07-11 14:00:01,15.73207049,0.0002287,53.2157,285.8082,24.956,121.5794,0.00015847,0.00021685,0.0,0 STARLINK-4187,1 52850U 22062W   22192.58334491  .00021685  00000-0  15847-3 0  9995,2 52850  53.2157 285.8082 0002287  24.9560 121.5794 15.73207049  1304,6727.875,91.533,351.279,348.201,0.0
52850.0,STARLINK-4187,PAYLOAD,2022-07-11 22:00:00,15.73238673,0.0002221,53.2157,284.1577,21.7155,213.7706,-0.00051917,-0.00072984,0.0,0 STARLINK-4187,1 52850U 22062W   22192.91667824 -.00072984  00000-0 -51917-3 0  9999,2 52850  53.2157 284.1577 0002221  21.7155 213.7706 15.73238673  4349,6727.785,91.531,351.144,348.156,0.0
52850.0,STARLINK-4187,PAYLOAD,2022-07-12 14:00:01,15.73185827,0.0002524,53.2161,280.8598,25.4402,27.9551,0.00044691,0.00062536,0.0,0 STARLINK-4187,1 52850U 22062W   22193.58334491  .00062536  00000-0  44691-3 0  9995,2 52850  53.2161 280.8598 0002524  25.4402  27.9551 15.73185827  4448,6727.936,91.534,351.499,348.102,0.0
52850.0,STARLINK-4187,PAYLOAD,2022-07-12 22:00:00,15.73289351,0.0002447,53.2157,279.2091,23.6846,118.6541,-0.000537,-0.00075612,0.0,0 STARLINK-4187,1 52850U 22062W   22193.91667824 -.00075612  00000-0 -53700-3 0  9993,2 52850  53.2157 279.2091 0002447  23.6846 118.6541 15.73289351  1305,6727.64,91.528,351.152,347.8590000000001,0.0
52850.0,STARLINK-4187,PAYLOAD,2022-07-13 04:00:00,15.73230444,0.0002291,53.2156,277.971,25.0967,93.9938,-4.8818e-05,-7.477e-05,0.0,0 STARLINK-4187,1 52850U 22062W   22194.16667824 -.00007477  00000-0 -48818-4 0  9990,2 52850  53.2156 277.9710 0002291  25.0967  93.9938 15.73230444  4536,6727.808000000001,91.531,351.215,348.13199999999995,0.0
52850.0,STARLINK-4187,PAYLOAD,2022-07-13 14:00:01,15.7319524,0.0002506,53.2156,275.9116,20.6298,299.6492,-0.0007367,-0.00102758,0.0,0 STARLINK-4187,1 52850U 22062W   22194.58334491 -.00102758  00000-0 -73670-3 0  9998,2 52850  53.2156 275.9116 0002506  20.6298 299.6492 15.73195240  4603,6727.909000000002,91.533,351.46,348.088,0.0
52850.0,STARLINK-4187,PAYLOAD,2022-07-13 22:00:00,15.73114254,0.000238,53.2154,274.2609,14.9305,34.2247,0.00013237,0.0001793,0.0,0 STARLINK-4187,1 52850U 22062W   22194.91667824  .00017930  00000-0  13237-3 0  9992,2 52850  53.2154 274.2609 0002380  14.9305  34.2247 15.73114254  1306,6728.14,91.538,351.606,348.403,0.0
52850.0,STARLINK-4187,PAYLOAD,2022-07-14 08:00:01,15.73157483,0.0002408,53.2156,272.1992,17.8001,232.3887,0.00014981,0.00020418,0.0,0 STARLINK-4187,1 52850U 22062W   22195.33334491  .00020418  00000-0  14981-3 0  9992,2 52850  53.2156 272.1992 0002408  17.8001 232.3887 15.73157483  4727,6728.016,91.536,351.50199999999984,348.261,0.0
